NORAD_CAT_ID,OBJECT_NAME,OBJECT_TYPE,EPOCH,MEAN_MOTION,ECCENTRICITY,INCLINATION,RA_OF_ASC_NODE,ARG_OF_PERICENTER,MEAN_ANOMALY,BSTAR,MEAN_MOTION_DOT,MEAN_MOTION_DDOT,TLE_LINE0,TLE_LINE1,TLE_LINE2,SEMIMAJOR_AXIS,PERIOD,APOGEE,PERIGEE,DECAYED
53829.0,STARLINK-4759,PAYLOAD,2024-06-14 15:36:44,15.08839895,0.000135,53.2162,265.9715,97.1866,262.928,0.00010774,1.427e-05,0.0,0 STARLINK-4759,1 53829U 22114M   24166.65050996  .00001427  00000-0  10774-3 0  9992,2 53829  53.2162 265.9715 0001350  97.1866 262.9280 15.08839895 97268,6917.881,95.438,540.68,538.812,0.0
53829.0,STARLINK-4759,PAYLOAD,2024-06-15 13:52:08,15.08840523,0.000156,53.2151,261.8067,80.3899,279.7269,5.9704e-05,6.62e-06,0.0,0 STARLINK-4759,1 53829U 22114M   24167.57787058  .00000662  00000-0  59704-4 0  9997,2 53829  53.2151 261.8067 0001560  80.3899 279.7269 15.08840523 97403,6917.879,95.438,540.823,538.665,0.0
53829.0,STARLINK-4759,PAYLOAD,2024-06-16 13:42:54,15.08841632,0.0001313,53.215,257.3447,85.4093,274.7049,0.00010379,1.364e-05,0.0,0 STARLINK-4759,1 53829U 22114M   24168.57146895  .00001364  00000-0  10379-3 0  9990,2 53829  53.2150 257.3447 0001313  85.4093 274.7049 15.08841632 97551,6917.875,95.437,540.649,538.832,0.0
53829.0,STARLINK-4759,PAYLOAD,2024-06-16 15:18:17,15.08844622,0.0001306,53.2149,257.0469,86.0942,274.0199,0.00016625,2.359e-05,0.0,0 STARLINK-4759,1 53829U 22114M   24168.63770792  .00002359  00000-0  16625-3 0  9991,2 53829  53.2149 257.0469 0001306  86.0942 274.0199 15.08844622 97564,6917.866,95.437,540.635,538.828,0.0
53829.0,STARLINK-4759,PAYLOAD,2024-06-17 11:58:19,15.08837084,0.0001535,53.217,253.1817,99.1565,260.9601,1.1478e-05,-1.05e-06,0.0,0 STARLINK-4759,1 53829U 22114M   24169.49883267 -.00000105  00000-0  11478-4 0  9998,2 53829  53.2170 253.1817 0001535  99.1565 260.9601 15.08837084 97692,6917.889,95.438,540.816,538.692,0.0
53829.0,STARLINK-4759,PAYLOAD,2024-06-18 05:27:33,15.08840983,0.0001468,53.2164,249.9093,99.1565,260.9594,0.00020982,3.053e-05,0.0,0 STARLINK-4759,1 53829U 22114M   24170.22747345  .00003053  00000-0  20982-3 0  9990,2 53829  53.2164 249.9093 0001468  99.1565 260.9594 15.08840983 97265,6917.877,95.437,540.758,538.727,0.0
53829.0,STARLINK-4759,PAYLOAD,2024-06-18 11:49:06,15.08845403,0.0001449,53.2152,248.7216,92.9976,267.1182,0.00022675,3.323e-05,0.0,0 STARLINK-4759,1 53829U 22114M   24170.49243167  .00003323  00000-0  22675-3 0  9993,2 53829  53.2152 248.7216 0001449  92.9976 267.1182 15.08845403 97840,6917.864,95.437,540.731,538.726,0.0
53829.0,STARLINK-4759,PAYLOAD,2024-06-19 11:39:53,15.08836438,0.0001395,53.2154,244.2609,93.9819,266.1332,4.0505e-05,3.57e-06,0.0,0 STARLINK-4759,1 53829U 22114M   24171.48603563  .00000357  00000-0  40505-4 0  9990,2 53829  53.2154 244.2609 0001395  93.9819 266.1332 15.08836438 97457,6917.891,95.438,540.721,538.791,0.0
53829.0,STARLINK-4759,PAYLOAD,2024-06-20 11:30:40,15.08839378,0.0001386,53.2156,239.8013,93.0532,267.0618,4.631e-05,4.49e-06,0.0,0 STARLINK-4759,1 53829U 22114M   24172.47963578  .00000449  00000-0  46310-4 0  9997,2 53829  53.2156 239.8013 0001386  93.0532 267.0618 15.08839378 98141,6917.882,95.438,540.706,538.788,0.0
53829.0,STARLINK-4759,PAYLOAD,2024-06-20 21:02:59,15.08844448,0.0001341,53.2162,238.0169,93.5341,266.5804,9.6963e-05,1.256e-05,0.0,0 STARLINK-4759,1 53829U 22114M   24172.87707232  .00001256  00000-0  96963-4 0  9990,2 53829  53.2162 238.0169 0001341  93.5341 266.5804 15.08844448 97666,6917.867,95.437,540.659,538.804,0.0
53829.0,STARLINK-4759,PAYLOAD,2024-06-21 11:21:28,15.08830222,0.0001459,53.2171,235.3425,97.8878,262.228,8.0844e-05,9.99e-06,0.0,0 STARLINK-4759,1 53829U 22114M   24173.47324401  .00000999  00000-0  80844-4 0  9994,2 53829  53.2171 235.3425 0001459  97.8878 262.2280 15.08830222 97759,6917.91,95.438,540.785,538.766,0.0
53829.0,STARLINK-4759,PAYLOAD,2024-06-22 12:47:38,15.08838334,0.0001398,53.2166,230.5845,96.7604,263.3548,0.00011767,1.585e-05,0.0,0 STARLINK-4759,1 53829U 22114M   24174.53308046  .00001585  00000-0  11767-3 0  9998,2 53829  53.2166 230.5845 0001398  96.7604 263.3548 15.08838334 97912,6917.885,95.438,540.718,538.783,0.0
53829.0,STARLINK-4759,PAYLOAD,2024-06-23 12:38:25,15.08841566,0.0001307,53.2157,226.1203,87.0015,273.1126,0.00010232,1.341e-05,0.0,0 STARLINK-4759,1 53829U 22114M   24175.52667850  .00001341  00000-0  10232-3 0  9995,2 53829  53.2157 226.1203 0001307  87.0015 273.1126 15.08841566 98609,6917.876,95.437,540.645,538.836,0.0
53829.0,STARLINK-4759,PAYLOAD,2024-06-24 02:56:56,15.08812052,0.0001387,53.2158,223.4457,94.3449,265.7702,-0.000166,-2.927e-05,0.0,0 STARLINK-4759,1 53829U 22114M   24176.12287284 -.00002927  00000-0 -16600-3 0  9999,2 53829  53.2158 223.4457 0001387  94.3449 265.7702 15.08812052 98156,6917.966,95.439,540.79,538.871,0.0
53829.0,STARLINK-4759,PAYLOAD,2024-06-24 10:53:50,15.08838128,0.0001349,53.2159,221.9568,83.8085,276.3061,6.5477e-05,7.54e-06,0.0,0 STARLINK-4759,1 53829U 22114M   24176.45405504  .00000754  00000-0  65477-4 0  9993,2 53829  53.2159 221.9568 0001349  83.8085 276.3061 15.08838128 98204,6917.886,95.438,540.684,538.818,0.0
53829.0,STARLINK-4759,PAYLOAD,2024-06-25 09:09:13,15.08847898,0.0001302,53.2153,217.7949,81.6438,278.4702,0.000158,2.228e-05,0.0,0 STARLINK-4759,1 53829U 22114M   24177.38140741  .00002228  00000-0  15800-3 0  9997,2 53829  53.2153 217.7949 0001302  81.6438 278.4702 15.08847898 98345,6917.856,95.437,540.622,538.821,0.0
53829.0,STARLINK-4759,PAYLOAD,2024-06-26 09:00:00,15.08860346,0.0001197,53.2135,213.3338,89.7673,270.3456,0.0002281,3.346e-05,0.0,0 STARLINK-4759,1 53829U 22114M   24178.37500285  .00003346  00000-0  22810-3 0  9991,2 53829  53.2135 213.3338 0001197  89.7673 270.3456 15.08860346 99038,6917.818,95.436,540.511,538.855,0.0
53829.0,STARLINK-4759,PAYLOAD,2024-06-27 08:50:47,15.08847911,0.00013,53.2148,208.8715,108.5764,251.5369,-4.9719e-05,-1.079e-05,0.0,0 STARLINK-4759,1 53829U 22114M   24179.36860304 -.00001079  00000-0 -49719-4 0  9993,2 53829  53.2148 208.8715 0001300 108.5764 251.5369 15.08847911 98640,6917.856,95.437,540.621,538.822,0.0
53829.0,STARLINK-4759,PAYLOAD,2024-06-27 18:23:06,15.08847145,0.0001262,53.2149,207.089,97.9293,262.1843,-6.0055e-05,-1.244e-05,0.0,0 STARLINK-4759,1 53829U 22114M   24179.76604195 -.00001244  00000-0 -60055-4 0  9991,2 53829  53.2149 207.0890 0001262  97.9293 262.1843 15.08847145 99242,6917.859,95.437,540.597,538.851,0.0
53829.0,STARLINK-4759,PAYLOAD,2024-06-28 05:30:48,15.08839808,0.0001288,53.2148,205.0073,97.6521,262.4617,-8.645e-05,-1.663e-05,0.0,0 STARLINK-4759,1 53829U 22114M   24180.22972611 -.00001663  00000-0 -86450-4 0  9997,2 53829  53.2148 205.0073 0001288  97.6521 262.4617 15.08839808 98777,6917.881,95.438,540.637,538.855,0.0
53829.0,STARLINK-4759,PAYLOAD,2024-06-28 08:41:34,15.08840741,0.0001344,53.2149,204.4158,102.7553,257.3589,-6.204e-05,-1.275e-05,0.0,0 STARLINK-4759,1 53829U 22114M   24180.36220451 -.00001275  00000-0 -62040-4 0  9998,2 53829  53.2149 204.4158 0001344 102.7553 257.3589 15.08840741 99333,6917.878,95.438,540.673,538.813,0.0
53829.0,STARLINK-4759,PAYLOAD,2024-06-29 08:32:21,15.08835059,0.0001312,53.2148,199.9567,104.6662,255.4476,6.2276e-05,7.03e-06,0.0,0 STARLINK-4759,1 53829U 22114M   24181.35580511  .00000703  00000-0  62276-4 0  9998,2 53829  53.2148 199.9567 0001312 104.6662 255.4476 15.08835059 98947,6917.895,95.438,540.668,538.853,0.0
53829.0,STARLINK-4759,PAYLOAD,2024-06-29 18:04:40,15.08836836,0.0001303,53.2149,198.1719,103.1012,257.0125,6.614e-05,7.65e-06,0.0,0 STARLINK-4759,1 53829U 22114M   24181.75324521  .00000765  00000-0  66140-4 0  9991,2 53829  53.2149 198.1719 0001303 103.1012 257.0125 15.08836836 99541,6917.89,95.438,540.656,538.854,0.0
53829.0,STARLINK-4759,PAYLOAD,2024-06-30 08:23:08,15.08837615,0.0001218,53.2144,195.4922,89.4834,270.6297,6.515e-05,7.49e-06,0.0,0 STARLINK-4759,1 53829U 22114M   24182.34940625  .00000749  00000-0  65150-4 0  9998,2 53829  53.2144 195.4922 0001218  89.4834 270.6297 15.08837615 99632,6917.888,95.438,540.595,538.91,0.0
53829.0,STARLINK-4759,PAYLOAD,2024-06-30 17:55:27,15.0884135,0.0001246,53.2146,193.7077,87.1531,272.9604,9.1383e-05,1.167e-05,0.0,0 STARLINK-4759,1 53829U 22114M   24182.74684337  .00001167  00000-0  91383-4 0  9999,2 53829  53.2146 193.7077 0001246  87.1531 272.9604 15.08841350 99151,6917.876,95.437,540.603,538.879,0.0
53829.0,STARLINK-4759,PAYLOAD,2024-07-01 09:49:18,15.08841979,0.0001319,53.2148,190.7337,86.6878,273.4265,7.8932e-05,9.69e-06,0.0,0 STARLINK-4759,1 53829U 22114M   24183.40924382  .00000969  00000-0  78932-4 0  9994,2 53829  53.2148 190.7337 0001319  86.6878 273.4265 15.08841979 99794,6917.874,95.437,540.652,538.827,0.0
53829.0,STARLINK-4759,PAYLOAD,2024-07-01 17:46:14,15.08844803,0.0001357,53.215,189.2467,85.927,274.1878,8.4737e-05,1.061e-05,0.0,0 STARLINK-4759,1 53829U 22114M   24183.74044121  .00001061  00000-0  84737-4 0  9999,2 53829  53.2150 189.2467 0001357  85.9270 274.1878 15.08844803 99847,6917.866,95.437,540.669,538.792,0.0
53829.0,STARLINK-4759,PAYLOAD,2024-07-02 04:53:56,15.08841007,0.0001382,53.2152,187.1653,87.093,273.022,5.7748e-05,6.31e-06,0.0,0 STARLINK-4759,1 53829U 22114M   24184.20412401  .00000631  00000-0  57748-4 0  9995,2 53829  53.2152 187.1653 0001382  87.0930 273.0220 15.08841007 99377,6917.877,95.437,540.698,538.786,0.0
53829.0,STARLINK-4759,PAYLOAD,2024-07-02 06:29:19,15.08841354,0.0001359,53.215,186.8679,87.5107,272.604,6.0643e-05,6.77e-06,0.0,0 STARLINK-4759,1 53829U 22114M   24184.27036355  .00000677  00000-0  60643-4 0  9990,2 53829  53.2150 186.8679 0001359  87.5107 272.6040 15.08841354 99925,6917.876,95.437,540.681,538.801,0.0
53829.0,STARLINK-4759,PAYLOAD,2024-07-02 17:37:01,15.08844623,0.0001344,53.2152,184.7864,87.2628,272.8518,5.1635e-05,5.34e-06,0.0,0 STARLINK-4759,1 53829U 22114M   24184.73404044  .00000534  00000-0  51635-4 0  9998,2 53829  53.2152 184.7864 0001344  87.2628 272.8518 15.08844623 99990,6917.866,95.437,540.661,538.801,0.0
